[
    {
        "Altitude(m)": 622200.1203198107,
        "Argument of Periapsis(deg)": 0.0,
        "Eccentricity": 0.0,
        "Inclination(deg)": 60.0,
        "Latitude(deg)": -52.16257443560301,
        "Longitude(deg)": -162.6393739729836,
        "Mean Anomaly(deg)": -65.45449999999992,
        "RAAN(deg)": 345.0,
        "Satellite Name": "Test1 1536",
        "Satellite Number": 1536,
        "Semi-Major Axis(m)": 6980739.136638005,
        "Time(s)": 0
    },
    {
        "Altitude(m)": 622058.2885902926,
        "Argument of Periapsis(deg)": 0.00010418945913296404,
        "Eccentricity": 0.0,
        "Inclination(deg)": 60.0,
        "Latitude(deg)": -51.79932541163004,
        "Longitude(deg)": -161.87131382198768,
        "Mean Anomaly(deg)": -64.83439385453808,
        "RAAN(deg)": 344.99957995086027,
        "Satellite Name": "Test1 1536",
        "Satellite Number": 1536,
        "Semi-Major Axis(m)": 6980739.136638005,
        "Time(s)": 10
    }
]